COMMENT,ORIGINATOR,NORAD_CAT_ID,OBJECT_NAME,OBJECT_TYPE,CLASSIFICATION_TYPE,INTLDES,EPOCH,EPOCH_MICROSECONDS,MEAN_MOTION,ECCENTRICITY,INCLINATION,RA_OF_ASC_NODE,ARG_OF_PERICENTER,MEAN_ANOMALY,EPHEMERIS_TYPE,ELEMENT_SET_NO,REV_AT_EPOCH,BSTAR,MEAN_MOTION_DOT,MEAN_MOTION_DDOT,FILE,TLE_LINE0,TLE_LINE1,TLE_LINE2,OBJECT_ID,OBJECT_NUMBER,SEMIMAJOR_AXIS,PERIOD,APOGEE,PERIGEE,DECAYED
"GENERATED VIA SPACETRACK.ORG API","18 SPCS","48895","SPACEBEE-108","PAYLOAD","U","21059S","2023-12-14 09:14:46","922784","15.51918365","0.0004239","97.6092","132.2786","334.4149","25.6893","0","999","13711","0.0012779","0.00077212","0","4136020","0 SPACEBEE-108","1 48895U 21059S   23348.38526531  .00077212  00000-0  12779-2 0  9991","2 48895  97.6092 132.2786 0004239 334.4149  25.6893 15.51918365137114","2021-059S","48895","6789.262","92.788","414.005","408.249","0"
"GENERATED VIA SPACETRACK.ORG API","18 SPCS","48895","SPACEBEE-108","PAYLOAD","U","21059S","2023-12-14 09:14:46","922784","15.51918365","0.0004239","97.6092","132.2786","334.4149","25.6893","0","999","13711","0.0012779","0.00077212","0","4136178","0 SPACEBEE-108","1 48895U 21059S   23348.38526531  .00077212  00000-0  12779-2 0  9991","2 48895  97.6092 132.2786 0004239 334.4149  25.6893 15.51918365137114","2021-059S","48895","6789.262","92.788","414.005","408.249","0"
"GENERATED VIA SPACETRACK.ORG API","18 SPCS","48895","SPACEBEE-108","PAYLOAD","U","21059S","2023-12-14 21:37:33","178080","15.51998872","0.0004322","97.6092","132.8252","332.788","27.3145","0","999","13719","0.00086576","0.00052264","0","4136513","0 SPACEBEE-108","1 48895U 21059S   23348.90107845  .00052264  00000-0  86576-3 0  9999","2 48895  97.6092 132.8252 0004322 332.7880  27.3145 15.51998872137192","2021-059S","48895","6789.028","92.784","413.827","407.958","0"
"GENERATED VIA SPACETRACK.ORG API","18 SPCS","48895","SPACEBEE-108","PAYLOAD","U","21059S","2023-12-15 08:27:26","592768","15.52072525","0.0004164","97.6095","133.303","331.3192","28.783","0","999","13726","0.00075828","0.00045845","0","4137031","0 SPACEBEE-108","1 48895U 21059S   23349.35239112  .00045845  00000-0  75828-3 0  9997","2 48895  97.6095 133.3030 0004164 331.3192  28.7830 15.52072525137263","2021-059S","48895","6788.813","92.779","413.505","407.851","0"
"GENERATED VIA SPACETRACK.ORG API","18 SPCS","48895","SPACEBEE-108","PAYLOAD","U","21059S","2023-12-15 08:27:26","592768","15.52072525","0.0004164","97.6095","133.303","331.3192","28.783","0","999","13726","0.00075828","0.00045845","0","4137061","0 SPACEBEE-108","1 48895U 21059S   23349.35239112  .00045845  00000-0  75828-3 0  9997","2 48895  97.6095 133.3030 0004164 331.3192  28.7830 15.52072525137263","2021-059S","48895","6788.813","92.779","413.505","407.851","0"
"GENERATED VIA SPACETRACK.ORG API","18 SPCS","48895","SPACEBEE-108","PAYLOAD","U","21059S","2023-12-15 22:22:58","488960","15.52163251","0.0004248","97.6094","133.9178","330.377","29.7241","0","999","13735","0.001061","0.00064549","0","4137270","0 SPACEBEE-108","1 48895U 21059S   23349.93262140  .00064549  00000-0  10610-2 0  9997","2 48895  97.6094 133.9178 0004248 330.3770  29.7241 15.52163251137359","2021-059S","48895","6788.548","92.774","413.297","407.529","0"
"GENERATED VIA SPACETRACK.ORG API","18 SPCS","48895","SPACEBEE-108","PAYLOAD","U","21059S","2023-12-15 22:22:58","488960","15.52163251","0.0004248","97.6094","133.9178","330.377","29.7241","0","999","13735","0.001061","0.00064549","0","4137333","0 SPACEBEE-108","1 48895U 21059S   23349.93262140  .00064549  00000-0  10610-2 0  9997","2 48895  97.6094 133.9178 0004248 330.3770  29.7241 15.52163251137359","2021-059S","48895","6788.548","92.774","413.297","407.529","0"
"GENERATED VIA SPACETRACK.ORG API","18 SPCS","48895","SPACEBEE-108","PAYLOAD","U","21059S","2023-12-16 09:12:47","732256","15.52251905","0.0004174","97.6095","134.3953","328.493","31.6071","0","999","13742","0.0013558","0.00082966","0","4137623","0 SPACEBEE-108","1 48895U 21059S   23350.38388579  .00082966  00000-0  13558-2 0  9990","2 48895  97.6095 134.3953 0004174 328.4930  31.6071 15.52251905137425","2021-059S","48895","6788.290","92.768","412.988","407.321","0"
"GENERATED VIA SPACETRACK.ORG API","18 SPCS","48895","SPACEBEE-108","PAYLOAD","U","21059S","2023-12-16 09:12:47","732256","15.52251905","0.0004174","97.6095","134.3953","328.493","31.6071","0","999","13742","0.0013558","0.00082966","0","4137834","0 SPACEBEE-108","1 48895U 21059S   23350.38388579  .00082966  00000-0  13558-2 0  9990","2 48895  97.6095 134.3953 0004174 328.4930  31.6071 15.52251905137425","2021-059S","48895","6788.290","92.768","412.988","407.321","0"
"GENERATED VIA SPACETRACK.ORG API","18 SPCS","48895","SPACEBEE-108","PAYLOAD","U","21059S","2023-12-16 21:35:24","655488","15.52328144","0.0004246","97.6093","134.9422","327.2017","32.8971","0","999","13750","0.0011954","0.00073249","0","4138106","0 SPACEBEE-108","1 48895U 21059S   23350.89959092  .00073249  00000-0  11954-2 0  9992","2 48895  97.6093 134.9422 0004246 327.2017  32.8971 15.52328144137504","2021-059S","48895","6788.068","92.764","412.815","407.050","0"
"GENERATED VIA SPACETRACK.ORG API","18 SPCS","48895","SPACEBEE-108","PAYLOAD","U","21059S","2023-12-16 23:08:14","102304","15.52338753","0.000451","97.6096","135.0109","327.0213","33.0757","0","999","13751","0.0011665","0.00071491","0","4138169","0 SPACEBEE-108","1 48895U 21059S   23350.96405211  .00071491  00000-0  11665-2 0  9995","2 48895  97.6096 135.0109 0004510 327.0213  33.0757 15.52338753137514","2021-059S","48895","6788.037","92.763","412.963","406.840","0"
"GENERATED VIA SPACETRACK.ORG API","18 SPCS","48895","SPACEBEE-108","PAYLOAD","U","21059S","2023-12-17 08:25:09","847488","15.5241641","0.000442","97.6095","135.4202","325.9561","34.1406","0","999","13757","0.0014412","0.00088787","0","4138414","0 SPACEBEE-108","1 48895U 21059S   23351.35080842  .00088787  00000-0  14412-2 0  9997","2 48895  97.6095 135.4202 0004420 325.9561  34.1406 15.52416410137570","2021-059S","48895","6787.810","92.759","412.675","406.675","0"
"GENERATED VIA SPACETRACK.ORG API","18 SPCS","48895","SPACEBEE-108","PAYLOAD","U","21059S","2023-12-17 08:25:09","847488","15.5241641","0.000442","97.6095","135.4202","325.9561","34.1406","0","999","13757","0.0014412","0.00088787","0","4138654","0 SPACEBEE-108","1 48895U 21059S   23351.35080842  .00088787  00000-0  14412-2 0  9997","2 48895  97.6095 135.4202 0004420 325.9561  34.1406 15.52416410137570","2021-059S","48895","6787.810","92.759","412.675","406.675","0"
"GENERATED VIA SPACETRACK.ORG API","18 SPCS","48895","SPACEBEE-108","PAYLOAD","U","21059S","2023-12-17 22:20:30","311232","15.52544326","0.0004677","97.6091","136.0357","325.8782","34.2169","0","999","13766","0.0017544","0.0010888","0","4138912","0 SPACEBEE-108","1 48895U 21059S   23351.93090638  .00108880  00000-0  17544-2 0  9991","2 48895  97.6091 136.0357 0004677 325.8782  34.2169 15.52544326137667","2021-059S","48895","6787.437","92.751","412.477","406.128","0"
"GENERATED VIA SPACETRACK.ORG API","18 SPCS","48895","SPACEBEE-108","PAYLOAD","U","21059S","2023-12-17 22:20:30","311232","15.52544326","0.0004677","97.6091","136.0357","325.8782","34.2169","0","999","13766","0.0017544","0.0010888","0","4138963","0 SPACEBEE-108","1 48895U 21059S   23351.93090638  .00108880  00000-0  17544-2 0  9991","2 48895  97.6091 136.0357 0004677 325.8782  34.2169 15.52544326137667","2021-059S","48895","6787.437","92.751","412.477","406.128","0"
"GENERATED VIA SPACETRACK.ORG API","18 SPCS","48895","SPACEBEE-108","PAYLOAD","U","21059S","2023-12-18 09:10:09","983136","15.52638434","0.0004521","97.609","136.5126","323.8204","36.2742","0","999","13773","0.0014913","0.00092658","0","4139416","0 SPACEBEE-108","1 48895U 21059S   23352.38205999  .00092658  00000-0  14913-2 0  9991","2 48895  97.6090 136.5126 0004521 323.8204  36.2742 15.52638434137731","2021-059S","48895","6787.163","92.745","412.097","405.960","0"
"GENERATED VIA SPACETRACK.ORG API","18 SPCS","48895","SPACEBEE-108","PAYLOAD","U","21059S","2023-12-18 09:10:09","983136","15.52638434","0.0004521","97.609","136.5126","323.8204","36.2742","0","999","13773","0.0014913","0.00092658","0","4139460","0 SPACEBEE-108","1 48895U 21059S   23352.38205999  .00092658  00000-0  14913-2 0  9991","2 48895  97.6090 136.5126 0004521 323.8204  36.2742 15.52638434137731","2021-059S","48895","6787.163","92.745","412.097","405.960","0"
"GENERATED VIA SPACETRACK.ORG API","18 SPCS","48895","SPACEBEE-108","PAYLOAD","U","21059S","2023-12-18 15:21:23","4576","15.52692203","0.0004573","97.6086","136.7858","322.9682","37.1254","0","999","13777","0.0016661","0.00103877","0","4139685","0 SPACEBEE-108","1 48895U 21059S   23352.63984959  .00103877  00000-0  16661-2 0  9997","2 48895  97.6086 136.7858 0004573 322.9682  37.1254 15.52692203137773","2021-059S","48895","6787.006","92.742","411.975","405.768","0"
"GENERATED VIA SPACETRACK.ORG API","18 SPCS","48895","SPACEBEE-108","PAYLOAD","U","21059S","2023-12-18 23:05:23","187552","15.52761683","0.0004596","97.6083","137.1271","322.0189","38.0739","0","999","13782","0.0015396","0.00096129","0","4139751","0 SPACEBEE-108","1 48895U 21059S   23352.96207393  .00096129  00000-0  15396-2 0  9998","2 48895  97.6083 137.1271 0004596 322.0189  38.0739 15.52761683137825","2021-059S","48895","6786.804","92.738","411.788","405.550","0"
"GENERATED VIA SPACETRACK.ORG API","18 SPCS","48895","SPACEBEE-108","PAYLOAD","U","21059S","2023-12-19 08:22:09","637824","15.52857059","0.0004536","97.6083","137.5365","321.118","38.9745","0","999","13788","0.0017475","0.00109683","0","4140005","0 SPACEBEE-108","1 48895U 21059S   23353.34872266  .00109683  00000-0  17475-2 0  9998","2 48895  97.6083 137.5365 0004536 321.1180  38.9745 15.52857059137883","2021-059S","48895","6786.526","92.732","411.469","405.313","0"
